OBJECT_NAME,OBJECT_ID,EPOCH,MEAN_MOTION,ECCENTRICITY,INCLINATION,RA_OF_ASC_NODE,ARG_OF_PERICENTER,MEAN_ANOMALY,EPHEMERIS_TYPE,CLASSIFICATION_TYPE,NORAD_CAT_ID,ELEMENT_SET_NO,REV_AT_EPOCH,BSTAR,MEAN_MOTION_DOT,MEAN_MOTION_DDOT
STARLINK-30166,2023-119A,2026-07-18T00:52:20.742816,15.27576493,.00015297,43.0037,65.2455,276.5259,83.5418,0,U,57602,999,16296,.2599262E-4,.453E-5,0
STARLINK-30223,2023-119B,2026-07-18T16:38:46.774752,15.11878268,.0007935,42.9983,82.0119,208.2250,151.8167,0,U,57603,999,16287,.59179E-3,.10102E-3,0
STARLINK-30218,2023-119C,2026-07-18T01:23:47.507136,15.27623156,.00016761,43.0016,65.4106,266.5962,93.4698,0,U,57604,999,16302,-.35288136E-3,-.9973E-4,0
STARLINK-30138,2023-119D,2026-07-18T01:29:21.084576,15.27578153,.00012509,43.0033,65.4380,268.5562,91.5147,0,U,57605,999,16302,.20693823E-4,.307E-5,0
STARLINK-30255,2023-119E,2026-07-18T16:41:19.038336,15.27598748,.0001943,43.0023,61.5905,291.0858,68.9786,0,U,57606,999,16312,-.54893E-4,-.1774E-4,0
STARLINK-30252,2023-119F,2026-07-18T20:43:51.340224,15.27584736,.000129,43.0016,45.8401,271.6253,88.4451,0,U,57607,999,16332,.23752E-4,.392E-5,0
STARLINK-30258,2023-119G,2026-07-18T16:08:12.992640,15.27571731,.0001196,43.0047,62.2670,263.8827,96.1889,0,U,57608,999,16311,.1342E-4,.107E-5,0
STARLINK-30174,2023-119H,2026-07-18T00:43:05.653920,15.27576898,.00015453,43.0041,65.1957,274.2609,85.8066,0,U,57609,999,16302,.18472006E-4,.246E-5,0
STARLINK-30248,2023-119J,2026-07-18T14:41:14.866368,15.27591050,.0001643,43.0056,61.8221,243.5761,116.4923,0,U,57610,999,16311,-.84707E-4,-.2593E-4,0
STARLINK-30052,2023-119K,2026-07-18T21:12:40.580928,15.27576677,.0001371,43.0041,60.4230,264.1064,95.9632,0,U,57611,999,16313,.79967E-4,.1939E-4,0
STARLINK-30245,2023-119L,2026-07-17T23:01:32.257632,15.27576293,.00012035,43.0029,65.5239,262.4672,97.6043,0,U,57612,999,16301,.9709102E-5,.5E-7,0
STARLINK-30041,2023-119M,2026-07-18T00:50:29.634144,15.27576407,.00015968,43.0034,65.2278,270.9030,89.1638,0,U,57613,999,16302,.28676303E-4,.527E-5,0
STARLINK-30244,2023-119N,2026-07-18T21:25:37.610688,15.27574096,.0001381,43.0022,60.4831,258.4927,101.5770,0,U,57614,999,16315,.48393E-4,.107E-4,0
STARLINK-30246,2023-119P,2026-07-18T15:13:22.479744,15.27921040,.0001462,42.9996,61.9718,257.1431,102.9258,0,U,57615,999,16311,.32594E-3,.8811E-4,0
STARLINK-30075,2023-119Q,2026-07-17T22:57:52.176960,15.27563891,.00011377,43.0008,65.5100,198.1056,161.9756,0,U,57616,999,16301,-.13371656E-4,-.63E-5,0
STARLINK-30148,2023-119R,2026-07-18T21:05:16.821888,15.27570582,.0001591,43.0042,60.3918,269.8563,90.2106,0,U,57617,999,16315,.39172E-4,.815E-5,0
STARLINK-30249,2023-119S,2026-07-18T16:28:21.548064,15.27577644,.0001624,43.0044,61.5277,268.1915,91.8751,0,U,57618,999,16312,.30766E-4,.584E-5,0
STARLINK-30141,2023-119U,2026-07-18T21:27:29.013120,15.27583078,.0001233,43.0003,60.5017,270.7200,89.3511,0,U,57620,999,16315,.11391E-3,.2874E-4,0
STARLINK-30150,2023-119V,2026-07-18T15:05:18.601728,15.27586093,.0000897,43.0005,61.9564,317.8150,42.2632,0,U,57621,999,16311,.55308E-4,.1261E-4,0
STARLINK-30056,2023-119W,2026-07-18T15:20:06.227808,15.27574082,.0000825,43.0014,61.9978,264.4307,95.6450,0,U,57622,999,16311,.29488E-4,.549E-5,0
STARLINK-30100,2023-119X,2026-07-18T20:08:07.383840,15.27579829,.0001211,43.0024,60.9454,269.0733,90.9980,0,U,57623,999,16314,.41792E-4,.888E-5,0
LUDI TANCE-4 01A,2023-120A,2026-07-18T10:13:52.148928,1.00275474,.0001579,15.0845,193.1922,12.4085,333.6523,0,U,57624,999,1085,0,-.185E-5,0
HEAD-3A,2023-121A,2026-07-18T21:04:05.744064,14.60714896,.000564,45.0004,155.8689,75.6166,284.5317,0,U,57626,999,15621,.54504E-4,.108E-5,0
HEAD-3B,2023-121B,2026-07-18T20:55:09.580224,14.61620388,.0004745,45.0015,148.8755,62.3369,297.7969,0,U,57627,999,15630,.60111E-4,.141E-5,0
HEAD-3C,2023-121C,2026-07-18T21:08:24.285696,14.62295331,.0005266,44.9986,143.0723,64.5892,295.5510,0,U,57628,999,15637,.62002E-4,.154E-5,0
HEAD-3D,2023-121D,2026-07-18T21:26:46.005792,14.62965429,.0006608,45.0031,138.1715,64.2610,295.8929,0,U,57629,999,15644,.65909E-4,.178E-5,0
HEAD-3E,2023-121E,2026-07-18T19:55:19.330176,14.63899163,.0007273,45.0010,131.2740,57.4628,302.6932,0,U,57630,999,15652,.74303E-4,.228E-5,0
STARLINK-30309,2023-122A,2026-07-17T22:19:05.196864,15.27577976,.00024379,43.0051,77.1376,244.0795,115.9805,0,U,57632,999,16212,.5602293E-5,-.108E-5,0
STARLINK-30306,2023-122B,2026-07-18T17:14:30.851232,15.27579038,.0001278,43.0040,72.7334,259.7548,100.3160,0,U,57633,999,16224,.75032E-4,.1803E-4,0
STARLINK-30323,2023-122C,2026-07-18T15:03:26.190144,15.27589800,.0001572,43.0010,61.8853,311.3644,48.7072,0,U,57634,999,16236,-.95915E-4,-.2901E-4,0
STARLINK-30329,2023-122D,2026-07-18T15:49:37.027776,15.27577750,.0001392,43.0012,73.1499,272.0272,88.0420,0,U,57635,999,16223,.41072E-4,.868E-5,0
STARLINK-30330,2023-122E,2026-07-18T00:13:35.728320,15.27580571,.00014093,43.0017,76.8707,268.5553,91.5137,0,U,57636,999,16213,.18332041E-4,.242E-5,0
STARLINK-30311,2023-122F,2026-07-18T00:33:44.541216,15.27570285,.00018698,43.0040,76.1274,262.3791,97.6848,0,U,57637,999,16214,.27806087E-4,.503E-5,0
STARLINK-30328,2023-122G,2026-07-17T23:10:45.309216,15.27579610,.00016638,43.0042,65.4611,268.6167,91.4494,0,U,57638,999,16227,.14630577E-4,.14E-5,0
STARLINK-30326,2023-122H,2026-07-18T16:52:18.535584,15.27577529,.0001273,43.0054,72.6095,257.6035,102.4674,0,U,57639,999,16224,.40017E-4,.839E-5,0
STARLINK-30324,2023-122J,2026-07-18T01:36:39.681216,15.27591327,.00013016,43.0026,76.4435,263.8850,96.1853,0,U,57640,999,16213,.44406761E-4,.96E-5,0
STARLINK-30312,2023-122K,2026-07-18T00:24:29.606976,15.27577697,.00014336,42.9981,76.0798,248.2640,111.8059,0,U,57641,999,16214,-.23454905E-4,-.907E-5,0
STARLINK-30263,2023-122L,2026-07-18T16:20:51.379008,15.27595628,.0001484,43.0019,72.4548,237.6465,122.4243,0,U,57642,999,16224,-.96486E-4,-.2918E-4,0
STARLINK-30280,2023-122M,2026-07-18T16:31:57.644832,15.27575166,.0001498,43.0044,72.5166,270.5740,89.4940,0,U,57643,999,16224,-.10947E-4,-.563E-5,0
STARLINK-30247,2023-122N,2026-07-18T16:26:24.366336,15.27580247,.0001327,43.0032,72.4943,265.7166,94.3534,0,U,57644,999,16224,.35706E-4,.721E-5,0
STARLINK-30277,2023-122P,2026-07-18T15:15:51.003072,15.27574594,.0001401,43.0044,290.8863,261.4978,98.5715,0,U,57645,999,16390,.10454E-4,.25E-6,0
STARLINK-30265,2023-122Q,2026-07-18T00:30:04.198752,15.27567802,.00009497,43.0013,76.1045,275.7840,84.2904,0,U,57646,999,16214,.1201414E-4,.69E-6,0
STARLINK-30286,2023-122R,2026-07-18T16:37:31.021824,15.27576608,.0001107,43.0046,72.5460,291.6039,68.4694,0,U,57647,999,16224,.10445E-4,.25E-6,0
STARLINK-30243,2023-122S,2026-07-18T17:03:24.912000,15.27574098,.0001353,43.0057,72.6743,262.4577,97.6121,0,U,57648,999,16224,.23434E-4,.383E-5,0
STARLINK-30299,2023-122U,2026-07-18T18:17:13.344000,15.27577882,.000111,43.0034,72.2007,276.7241,83.3484,0,U,57650,999,16225,.22774E-4,.365E-5,0
STARLINK-30294,2023-122V,2026-07-17T23:03:22.411584,15.27576903,.00013682,43.0052,65.4909,265.7780,94.2915,0,U,57651,999,16226,.756314E-5,-.54E-6,0
STARLINK-30276,2023-122W,2026-07-18T01:16:18.031008,15.27569582,.00013695,43.0054,76.3374,265.4333,94.6363,0,U,57652,999,16214,.44808902E-4,.971E-5,0
STARLINK-30289,2023-122X,2026-07-18T16:02:38.216832,15.27576279,.0001465,43.0050,62.1492,263.7122,96.3562,0,U,57653,999,16235,.53788E-4,.1218E-4,0
GAOFEN-12 04,2023-123A,2026-07-18T20:21:39.497184,14.79778902,.0003326,97.9098,117.3920,42.6829,317.4640,0,U,57654,999,15731,.63004E-4,.422E-5,0
STARLINK-30267,2023-124A,2026-07-18T08:10:19.444512,15.34391171,.00012977,53.1634,319.7622,71.0191,289.0952,0,U,57663,999,16357,.6981925E-5,-.14E-5,0
STARLINK-30298,2023-124C,2026-07-18T18:03:16.236864,15.34396413,.0001004,53.1591,317.3706,108.2095,251.9017,0,U,57665,999,16364,.17068E-3,.5394E-4,0
STARLINK-30301,2023-124D,2026-07-18T19:36:25.121088,15.34794516,.0002219,53.1613,17.7896,93.8690,266.2566,0,U,57666,999,16277,.38027E-3,.12654E-3,0
STARLINK-30275,2023-124E,2026-07-18T16:59:44.528064,15.34389637,.0000923,53.1605,317.6049,73.7871,286.3234,0,U,57667,999,16363,-.16264E-5,-.431E-5,0
STARLINK-30278,2023-124F,2026-07-18T14:28:30.451008,15.34395828,.0001066,53.1615,318.3966,79.8635,280.2487,0,U,57668,999,16361,.21687E-4,.357E-5,0
STARLINK-30271,2023-124G,2026-07-18T17:11:16.726848,15.31680448,.000135,53.1586,317.5422,114.0696,246.0447,0,U,57669,999,16363,.11768E-3,.3286E-4,0
STARLINK-30322,2023-124H,2026-07-17T17:41:53.250432,15.34391031,.0001248,53.1625,322.2165,99.9001,260.2142,0,U,57670,999,16348,.34860636E-4,.801E-5,0
STARLINK-30296,2023-124J,2026-07-17T14:31:17.554656,15.34387060,.0001103,53.1613,322.9456,88.9764,271.1365,0,U,57671,999,16346,.62111E-4,.1722E-4,0
STARLINK-30274,2023-124K,2026-07-18T16:26:27.250368,15.34399844,.0000985,53.1604,317.7052,98.1996,261.9119,0,U,57672,999,16363,.49054E-4,.1282E-4,0
STARLINK-30316,2023-124L,2026-07-18T15:04:45.245280,15.34393981,.0000613,53.1599,317.9609,73.4866,286.6203,0,U,57673,999,16362,.25986E-4,.502E-5,0
STARLINK-30313,2023-124P,2026-07-18T15:07:07.026816,15.30188622,.0001734,53.1606,318.7793,131.0802,229.0349,0,U,57676,999,16361,.20044E-4,.234E-5,0
STARLINK-30303,2023-124Q,2026-07-18T18:15:23.387040,15.34395939,.0000949,53.1599,317.4270,82.8666,277.2445,0,U,57677,999,16364,.15256E-4,.139E-5,0
STARLINK-30320,2023-124R,2026-07-18T15:37:10.201728,15.34395880,.00012,53.1561,304.0049,81.5985,278.5154,0,U,57678,999,16382,.85221E-4,.2504E-4,0
STARLINK-30321,2023-124S,2026-07-18T14:58:42.436992,15.34394300,.0001368,53.1592,318.0008,112.1511,247.9637,0,U,57679,999,16362,.48959E-4,.1278E-4,0
STARLINK-30283,2023-124T,2026-07-18T17:54:17.400672,15.34615700,.000128,53.1604,318.0189,81.1125,279.0023,0,U,57680,999,16363,-.12418E-2,-.42387E-3,0
STARLINK-30273,2023-124U,2026-07-18T17:16:48.381888,15.32076545,.0000959,53.1581,317.5785,64.2797,295.8303,0,U,57681,999,16363,.99198E-3,.30909E-3,0
